NORAD_CAT_ID,OBJECT_NAME,OBJECT_TYPE,EPOCH,MEAN_MOTION,ECCENTRICITY,INCLINATION,RA_OF_ASC_NODE,ARG_OF_PERICENTER,MEAN_ANOMALY,BSTAR,MEAN_MOTION_DOT,MEAN_MOTION_DDOT,TLE_LINE0,TLE_LINE1,TLE_LINE2,SEMIMAJOR_AXIS,PERIOD,APOGEE,PERIGEE,DECAYED
55414.0,STARLINK-5620,PAYLOAD,2024-06-12 15:55:32,14.98328403,0.0002944,69.9999,245.4897,272.7401,87.3421,-1.3931e-05,-2.59e-06,0.0,0 STARLINK-5620,1 55414U 23014Z   24164.66356959 -.00000259  00000-0 -13931-4 0  9994,2 55414  69.9999 245.4897 0002944 272.7401  87.3421 14.98328403 76441,6950.198,96.107,574.109,570.017,0.0
55414.0,STARLINK-5620,PAYLOAD,2024-06-13 12:45:16,14.98335377,0.0003072,69.9997,243.3019,268.4399,91.6408,7.5671e-05,8.1e-06,0.0,0 STARLINK-5620,1 55414U 23014Z   24165.53144100  .00000810  00000-0  75671-4 0  9994,2 55414  69.9997 243.3019 0003072 268.4399  91.6408 14.98335377 76578,6950.176,96.107,574.176,569.906,0.0
55414.0,STARLINK-5620,PAYLOAD,2024-06-13 14:21:24,14.98334968,0.0003077,69.9996,243.1336,268.1823,91.8984,6.8502e-05,7.25e-06,0.0,0 STARLINK-5620,1 55414U 23014Z   24165.59820117  .00000725  00000-0  68502-4 0  9999,2 55414  69.9996 243.1336 0003077 268.1823  91.8984 14.98334968 76588,6950.178,96.107,574.181,569.904,0.0
55414.0,STARLINK-5620,PAYLOAD,2024-06-13 15:57:32,14.98336039,0.0003081,69.9996,242.9652,268.205,91.8756,7.7598e-05,8.33e-06,0.0,0 STARLINK-5620,1 55414U 23014Z   24165.66496002  .00000833  00000-0  77598-4 0  9994,2 55414  69.9996 242.9652 0003081 268.2050  91.8756 14.98336039 76593,6950.174,96.107,574.181,569.898,0.0
55414.0,STARLINK-5620,PAYLOAD,2024-06-14 14:23:26,14.98325614,0.0003105,69.9995,240.6086,268.7921,91.2883,6.7987e-05,7.18e-06,0.0,0 STARLINK-5620,1 55414U 23014Z   24166.59960799  .00000718  00000-0  67987-4 0  9999,2 55414  69.9995 240.6086 0003105 268.7921  91.2883 14.98325614 76735,6950.206,96.107,574.229,569.913,0.0
55414.0,STARLINK-5620,PAYLOAD,2024-06-15 14:25:26,14.98340119,0.0003148,69.9994,238.0837,268.9146,91.1653,9.0594e-05,9.88e-06,0.0,0 STARLINK-5620,1 55414U 23014Z   24167.60099594  .00000988  00000-0  90594-4 0  9997,2 55414  69.9994 238.0837 0003148 268.9146  91.1653 14.98340119 76884,6950.162,96.106,574.215,569.839,0.0
55414.0,STARLINK-5620,PAYLOAD,2024-06-15 22:26:06,14.98334174,0.0003186,69.9992,237.2414,269.7596,90.3198,4.0265e-05,3.87e-06,0.0,0 STARLINK-5620,1 55414U 23014Z   24167.93479939  .00000387  00000-0  40265-4 0  9991,2 55414  69.9992 237.2414 0003186 269.7596  90.3198 14.98334174 76939,6950.18,96.107,574.259,569.831,0.0
55414.0,STARLINK-5620,PAYLOAD,2024-06-16 14:27:27,14.98333617,0.0003217,69.999,235.5576,268.3746,91.7044,0.00010914,1.21e-05,0.0,0 STARLINK-5620,1 55414U 23014Z   24168.60239774  .00001210  00000-0  10914-3 0  9990,2 55414  69.9990 235.5576 0003217 268.3746  91.7044 14.98333617 77032,6950.182,96.107,574.283,569.811,0.0
55414.0,STARLINK-5620,PAYLOAD,2024-06-17 20:54:00,14.98330769,0.0003133,69.9992,232.3595,269.2181,90.8619,-3.6237e-05,-5.25e-06,0.0,0 STARLINK-5620,1 55414U 23014Z   24169.87084023 -.00000525  00000-0 -36237-4 0  9992,2 55414  69.9992 232.3595 0003133 269.2181  90.8619 14.98330769 77224,6950.191,96.107,574.233,569.878,0.0
55414.0,STARLINK-5620,PAYLOAD,2024-06-18 12:55:21,14.98331302,0.0003217,69.9988,230.6766,267.1726,92.9065,1.9599e-05,1.41e-06,0.0,0 STARLINK-5620,1 55414U 23014Z   24170.53843793  .00000141  00000-0  19599-4 0  9998,2 55414  69.9988 230.6766 0003217 267.1726  92.9065 14.98331302 77328,6950.189,96.107,574.29,569.818,0.0
55414.0,STARLINK-5620,PAYLOAD,2024-06-18 14:31:29,14.98331452,0.0003217,69.9988,230.5083,267.2162,92.8629,2.0827e-05,1.55e-06,0.0,0 STARLINK-5620,1 55414U 23014Z   24170.60519776  .00000155  00000-0  20827-4 0  9998,2 55414  69.9988 230.5083 0003217 267.2162  92.8629 14.98331452 77336,6950.188,96.107,574.289,569.818,0.0
55414.0,STARLINK-5620,PAYLOAD,2024-06-19 12:57:19,14.98353387,0.0002857,70.0003,228.1517,269.2753,90.8078,0.00039131,4.582e-05,0.0,0 STARLINK-5620,1 55414U 23014Z   24171.53981420  .00004582  00000-0  39131-3 0  9995,2 55414  70.0003 228.1517 0002857 269.2753  90.8078 14.98353387 77471,6950.121,96.105,573.971,570.0,0.0
55414.0,STARLINK-5620,PAYLOAD,2024-06-19 14:33:25,14.98383675,0.0003404,69.9987,227.9826,264.0135,96.0636,0.00061213,7.229e-05,0.0,0 STARLINK-5620,1 55414U 23014Z   24171.60654680  .00007229  00000-0  61213-3 0  9995,2 55414  69.9987 227.9826 0003404 264.0135  96.0636 14.98383675 77487,6950.027,96.104,574.258,569.526,0.0
55414.0,STARLINK-5620,PAYLOAD,2024-06-20 04:58:42,14.9832984,0.0003393,69.9987,226.4681,272.9057,87.1714,1.7063e-05,1.11e-06,0.0,0 STARLINK-5620,1 55414U 23014Z   24172.20743240  .00000111  00000-0  17063-4 0  9991,2 55414  69.9987 226.4681 0003393 272.9057  87.1714 14.98329840 77570,6950.193,96.107,574.417,569.7,0.0
55414.0,STARLINK-5620,PAYLOAD,2024-06-20 12:59:22,14.98323812,0.0003393,69.9982,225.6265,268.7177,91.3593,-5.5634e-05,-7.57e-06,0.0,0 STARLINK-5620,1 55414U 23014Z   24172.54123823 -.00000757  00000-0 -55634-4 0  9991,2 55414  69.9982 225.6265 0003393 268.7177  91.3593 14.98323812 77621,6950.212,96.107,574.435,569.719,0.0
55414.0,STARLINK-5620,PAYLOAD,2024-06-21 13:01:23,14.98327497,0.0003243,69.9983,223.1014,266.0317,94.0472,-2.4219e-05,-3.82e-06,0.0,0 STARLINK-5620,1 55414U 23014Z   24173.54263809 -.00000382  00000-0 -24219-4 0  9990,2 55414  69.9983 223.1014 0003243 266.0317  94.0472 14.98327497 77773,6950.201,96.107,574.32,569.812,0.0
55414.0,STARLINK-5620,PAYLOAD,2024-06-22 13:03:24,14.98322569,0.0003142,69.9984,220.5766,265.2881,94.7919,0.00014027,1.581e-05,0.0,0 STARLINK-5620,1 55414U 23014Z   24174.54403774  .00001581  00000-0  14027-3 0  9993,2 55414  69.9984 220.5766 0003142 265.2881  94.7919 14.98322569 77929,6950.216,96.107,574.265,569.897,0.0
55414.0,STARLINK-5620,PAYLOAD,2024-06-23 13:05:25,14.98330336,0.0003099,69.9987,218.0522,262.5181,97.5626,0.00011586,1.29e-05,0.0,0 STARLINK-5620,1 55414U 23014Z   24175.54543574  .00001290  00000-0  11586-3 0  9991,2 55414  69.9987 218.0522 0003099 262.5181  97.5626 14.98330336 78072,6950.192,96.107,574.211,569.903,0.0
55414.0,STARLINK-5620,PAYLOAD,2024-06-24 13:07:26,14.9833499,0.0003088,69.9991,215.5268,264.4337,95.647,9.7729e-05,1.073e-05,0.0,0 STARLINK-5620,1 55414U 23014Z   24176.54683178  .00001073  00000-0  97729-4 0  9990,2 55414  69.9991 215.5268 0003088 264.4337  95.6470 14.98334990 78221,6950.177,96.107,574.189,569.896,0.0
55414.0,STARLINK-5620,PAYLOAD,2024-06-25 05:08:47,14.98330091,0.0002892,69.9997,213.8438,261.809,98.2741,2.6808e-06,-6.1e-07,0.0,0 STARLINK-5620,1 55414U 23014Z   24177.21443627 -.00000061  00000-0  26808-5 0  9996,2 55414  69.9997 213.8438 0002892 261.8090  98.2741 14.98330091 78325,6950.193,96.107,574.068,570.048,0.0
55414.0,STARLINK-5620,PAYLOAD,2024-06-25 11:33:19,14.98327377,0.0002954,69.9996,213.1707,263.3186,96.7637,-3.2882e-05,-4.85e-06,0.0,0 STARLINK-5620,1 55414U 23014Z   24177.48147907 -.00000485  00000-0 -32882-4 0  9996,2 55414  69.9996 213.1707 0002954 263.3186  96.7637 14.98327377 78362,6950.201,96.107,574.119,570.013,0.0
55414.0,STARLINK-5620,PAYLOAD,2024-06-26 11:35:20,14.98333422,0.0003029,69.9997,210.6463,262.2094,97.8722,1.3073e-05,6.3e-07,0.0,0 STARLINK-5620,1 55414U 23014Z   24178.48287268  .00000063  00000-0  13073-4 0  9993,2 55414  69.9997 210.6463 0003029 262.2094  97.8722 14.98333422 78516,6950.182,96.107,574.153,569.942,0.0
55414.0,STARLINK-5620,PAYLOAD,2024-06-27 11:37:21,14.98328105,0.0003177,69.9992,208.1206,268.8168,91.2627,5.7985e-05,5.99e-06,0.0,0 STARLINK-5620,1 55414U 23014Z   24179.48427564  .00000599  00000-0  57985-4 0  9993,2 55414  69.9992 208.1206 0003177 268.8168  91.2627 14.98328105 78666,6950.199,96.107,574.272,569.856,0.0
55414.0,STARLINK-5620,PAYLOAD,2024-06-28 11:39:22,14.98333128,0.0003235,69.999,205.5961,269.4305,90.6484,3.6829e-05,3.46e-06,0.0,0 STARLINK-5620,1 55414U 23014Z   24180.48567330  .00000346  00000-0  36829-4 0  9995,2 55414  69.9990 205.5961 0003235 269.4305  90.6484 14.98333128 78810,6950.183,96.107,574.297,569.8,0.0
55414.0,STARLINK-5620,PAYLOAD,2024-06-29 03:40:41,14.98344773,0.0003403,69.9986,203.9122,270.4858,89.5911,0.00018718,2.142e-05,0.0,0 STARLINK-5620,1 55414U 23014Z   24181.15325938  .00002142  00000-0  18718-3 0  9998,2 55414  69.9986 203.9122 0003403 270.4858  89.5911 14.98344773 78919,6950.147,96.106,574.377,569.647,0.0
55414.0,STARLINK-5620,PAYLOAD,2024-06-29 11:41:20,14.98357066,0.0003289,69.9987,203.0708,269.6603,90.4179,0.00034077,3.978e-05,0.0,0 STARLINK-5620,1 55414U 23014Z   24181.48704671  .00003978  00000-0  34077-3 0  9993,2 55414  69.9987 203.0708 0003289 269.6603  90.4179 14.98357066 78962,6950.109,96.105,574.26,569.688,0.0
55414.0,STARLINK-5620,PAYLOAD,2024-06-30 05:18:53,14.98303465,0.0003663,69.9993,201.2178,271.9366,88.1374,-0.00044676,-5.416e-05,0.0,0 STARLINK-5620,1 55414U 23014Z   24182.22144715 -.00005416  00000-0 -44676-3 0  9990,2 55414  69.9993 201.2178 0003663 271.9366  88.1374 14.98303465 79076,6950.275,96.109,574.686,569.594,0.0
55414.0,STARLINK-5620,PAYLOAD,2024-06-30 11:43:25,14.9828734,0.0003387,70.0004,200.5451,267.6435,92.4337,-0.00099896,-0.00011979,0.0,0 STARLINK-5620,1 55414U 23014Z   24182.48848884 -.00011979  00000-0 -99896-3 0  9991,2 55414  70.0004 200.5451 0003387 267.6435  92.4337 14.98287340 79115,6950.325,96.11,574.544,569.836,0.0
55414.0,STARLINK-5620,PAYLOAD,2024-06-30 18:07:58,14.98301686,0.0003219,69.9998,199.8705,281.0405,79.0392,0.00015932,1.807e-05,0.0,0 STARLINK-5620,1 55414U 23014Z   24182.75553366  .00001807  00000-0  15932-3 0  9995,2 55414  69.9998 199.8705 0003219 281.0405  79.0392 14.98301686 79153,6950.28,96.109,574.383,569.908,0.0
55414.0,STARLINK-5620,PAYLOAD,2024-07-01 11:45:26,14.98354999,0.0004073,69.999,198.0203,276.6268,83.4428,0.0025127,0.00030038,0.0,0 STARLINK-5620,1 55414U 23014Z   24183.48989299  .00030038  00000-0  25127-2 0  9998,2 55414  69.9990 198.0203 0004073 276.6268  83.4428 14.98354999 79261,6950.116,96.105,574.811,569.15,0.0
